ORBCOMM-X               
1 21576U 91050C   24236.42597785  .00001043  00000+0  32650-3 0  9996
2 21576  98.3848 302.5564 0003891  25.4390 334.6991 14.42673879739175
ORBCOMM FM01            
1 23545U 95017A   24236.33432630  .00011114  00000+0  14051-2 0  9992
2 23545  69.9657  92.8407 0002594  61.0828 299.0582 14.82035031568245
ORBCOMM FM02            
1 23546U 95017B   24236.38787559  .00012040  00000+0  15318-2 0  9997
2 23546  69.9677 112.2958 0004385  50.4454 309.7083 14.81739158567898
ORBCOMM FM08            
1 25112U 97084A   24236.63881616  .00004473  00000+0  13562-2 0  9991
2 25112  45.0156 353.8323 0008602 196.2477 163.8099 14.43292350398349
ORBCOMM FM10            
1 25113U 97084B   24236.51487203  .00004223  00000+0  12863-2 0  9999
2 25113  45.0170 356.3751 0005681 174.8358 185.2552 14.43169008573477
ORBCOMM FM11            
1 25114U 97084C   24236.61252597  .00003851  00000+0  11804-2 0  9997
2 25114  45.0157 356.0722 0006462 172.9501 187.1441 14.43022569398456
ORBCOMM FM12            
1 25115U 97084D   24236.50587950  .00004061  00000+0  12435-2 0  9995
2 25115  45.0163 356.3152 0005551 175.4138 184.6764 14.42979449398239
ORBCOMM FM09            
1 25116U 97084E   24236.58905968  .00004026  00000+0  12341-2 0  9994
2 25116  45.0164 356.6358 0006094 159.3775 200.7322 14.42942184398453
